{
  "type": "FeatureCollection",
  "features": [
    {
      "type": "Feature",
      "properties": {
        "norad_id": 34761,
        "name": "COSMOS 2251 DEB",
        "group": "cosmos-2251-debris",
        "lat": 55.13354953500748,
        "lon": 23.856319538205298,
        "alt_km": 735.809377539661,
        "timestamp": "2025-12-14T11:29:50.455452+00:00",
        "meta_object_name": "COSMOS 2251 DEB",
        "meta_object_id": "1993-036AAF",
        "meta_epoch": "2025-12-12T19:09:27.421920",
        "meta_mean_motion": 14.38049473,
        "meta_eccentricity": 0.00364098,
        "meta_inclination": 74.0297,
        "meta_ra_of_asc_node": 2.6837,
        "meta_arg_of_pericenter": 36.7521,
        "meta_mean_anomaly": 323.6119,
        "meta_ephemeris_type": 0,
        "meta_classification_type": "U",
        "meta_norad_cat_id": 34761,
        "meta_element_set_no": 999,
        "meta_rev_at_epoch": 87650,
        "meta_bstar": 0.0009152545,
        "meta_mean_motion_dot": 2.767e-05,
        "meta_mean_motion_ddot": 0,
        "tle_line1": "1 34761U 93036AAF 25346.79823405  .00002767  00000+0  91525-3 0  9996",
        "tle_line2": "2 34761  74.0297   2.6837 0036409  36.7521 323.6119 14.38049473876508"
      },
      "geometry": {
        "type": "Point",
        "coordinates": [
          23.856319538205298,
          55.13354953500748
        ]
      }
    },
    {
      "type": "Feature",
      "properties": {
        "norad_id": 34784,
        "name": "COSMOS 2251 DEB",
        "group": "cosmos-2251-debris",
        "lat": 65.47773125268485,
        "lon": -0.01992898574913125,
        "alt_km": 665.6226469603789,
        "timestamp": "2025-12-14T11:29:50.455462+00:00",
        "meta_object_name": "COSMOS 2251 DEB",
        "meta_object_id": "1993-036AAM",
        "meta_epoch": "2025-12-12T16:26:17.481984",
        "meta_mean_motion": 14.60779398,
        "meta_eccentricity": 0.00494088,
        "meta_inclination": 74.0074,
        "meta_ra_of_asc_node": 324.4607,
        "meta_arg_of_pericenter": 133.8124,
        "meta_mean_anomaly": 226.7144,
        "meta_ephemeris_type": 0,
        "meta_classification_type": "U",
        "meta_norad_cat_id": 34784,
        "meta_element_set_no": 999,
        "meta_rev_at_epoch": 88534,
        "meta_bstar": 0.00075874153,
        "meta_mean_motion_dot": 3.739e-05,
        "meta_mean_motion_ddot": 0,
        "tle_line1": "1 34784U 93036AAM 25346.68492456  .00003739  00000+0  75874-3 0  9996",
        "tle_line2": "2 34784  74.0074 324.4607 0049408 133.8124 226.7144 14.60779398885341"
      },
      "geometry": {
        "type": "Point",
        "coordinates": [
          -0.01992898574913125,
          65.47773125268485
        ]
      }
    },
    {
      "type": "Feature",
      "properties": {
        "norad_id": 34790,
        "name": "COSMOS 2251 DEB",
        "group": "cosmos-2251-debris",
        "lat": -26.634212803161965,
        "lon": -127.67134118977455,
        "alt_km": 752.4798345842055,
        "timestamp": "2025-12-14T11:29:50.455473+00:00",
        "meta_object_name": "COSMOS 2251 DEB",
        "meta_object_id": "1993-036AAT",
        "meta_epoch": "2025-12-12T04:44:34.895904",
        "meta_mean_motion": 14.2462878,
        "meta_eccentricity": 0.01007462,
        "meta_inclination": 74.0522,
        "meta_ra_of_asc_node": 244.6799,
        "meta_arg_of_pericenter": 306.4348,
        "meta_mean_anomaly": 209.2227,
        "meta_ephemeris_type": 0,
        "meta_classification_type": "U",
        "meta_norad_cat_id": 34790,
        "meta_element_set_no": 999,
        "meta_rev_at_epoch": 86565,
        "meta_bstar": 0.0010742752,
        "meta_mean_motion_dot": 2.606e-05,
        "meta_mean_motion_ddot": 0,
        "tle_line1": "1 34790U 93036AAT 25346.19762611  .00002606  00000+0  10743-2 0  9997",
        "tle_line2": "2 34790  74.0522 244.6799 0100746 306.4348 209.2227 14.24628780865658"
      },
      "geometry": {
        "type": "Point",
        "coordinates": [
          -127.67134118977455,
          -26.634212803161965
        ]
      }
    },
    {
      "type": "Feature",
      "properties": {
        "norad_id": 34792,
        "name": "COSMOS 2251 DEB",
        "group": "cosmos-2251-debris",
        "lat": 59.80888619012391,
        "lon": -43.103770997552076,
        "alt_km": 707.2189049747267,
        "timestamp": "2025-12-14T11:29:50.455482+00:00",
        "meta_object_name": "COSMOS 2251 DEB",
        "meta_object_id": "1993-036AAV",
        "meta_epoch": "2025-12-13T12:01:08.631840",
        "meta_mean_motion": 14.55966788,
        "meta_eccentricity": 0.0012481,
        "meta_inclination": 74.0175,
        "meta_ra_of_asc_node": 168.2645,
        "meta_arg_of_pericenter": 262.402,
        "meta_mean_anomaly": 128.1212,
        "meta_ephemeris_type": 0,
        "meta_classification_type": "U",
        "meta_norad_cat_id": 34792,
        "meta_element_set_no": 999,
        "meta_rev_at_epoch": 87661,
        "meta_bstar": 0.0015969195,
        "meta_mean_motion_dot": 7.007e-05,
        "meta_mean_motion_ddot": 0,
        "tle_line1": "1 34792U 93036AAV 25347.50079435  .00007007  00000+0  15969-2 0  9995",
        "tle_line2": "2 34792  74.0175 168.2645 0012481 262.4020 128.1212 14.55966788876619"
      },
      "geometry": {
        "type": "Point",
        "coordinates": [
          -43.103770997552076,
          59.80888619012391
        ]
      }
    },
    {
      "type": "Feature",
      "properties": {
        "norad_id": 34793,
        "name": "COSMOS 2251 DEB",
        "group": "cosmos-2251-debris",
        "lat": 31.654844787353113,
        "lon": 56.96682476937628,
        "alt_km": 770.5340261967694,
        "timestamp": "2025-12-14T11:29:50.455492+00:00",
        "meta_object_name": "COSMOS 2251 DEB",
        "meta_object_id": "1993-036AAW",
        "meta_epoch": "2025-12-13T16:34:48.811008",
        "meta_mean_motion": 14.38646708,
        "meta_eccentricity": 0.00503437,
        "meta_inclination": 74.0027,
        "meta_ra_of_asc_node": 248.6099,
        "meta_arg_of_pericenter": 42.4845,
        "meta_mean_anomaly": 343.1586,
        "meta_ephemeris_type": 0,
        "meta_classification_type": "U",
        "meta_norad_cat_id": 34793,
        "meta_element_set_no": 999,
        "meta_rev_at_epoch": 87344,
        "meta_bstar": 0.00036268671,
        "meta_mean_motion_dot": 1.102e-05,
        "meta_mean_motion_ddot": 0,
        "tle_line1": "1 34793U 93036AAW 25347.69084272  .00001102  00000+0  36269-3 0  9998",
        "tle_line2": "2 34793  74.0027 248.6099 0050343  42.4845 343.1586 14.38646708873441"
      },
      "geometry": {
        "type": "Point",
        "coordinates": [
          56.96682476937628,
          31.654844787353113
        ]
      }
    },
    {
      "type": "Feature",
      "properties": {
        "norad_id": 34796,
        "name": "COSMOS 2251 DEB",
        "group": "cosmos-2251-debris",
        "lat": -53.85624645427714,
        "lon": -170.00064062595044,
        "alt_km": 666.7255186719203,
        "timestamp": "2025-12-14T11:29:50.455502+00:00",
        "meta_object_name": "COSMOS 2251 DEB",
        "meta_object_id": "1993-036AAZ",
        "meta_epoch": "2025-12-13T16:09:22.764096",
        "meta_mean_motion": 14.4869684,
        "meta_eccentricity": 0.01002849,
        "meta_inclination": 74.0294,
        "meta_ra_of_asc_node": 214.5945,
        "meta_arg_of_pericenter": 316.4175,
        "meta_mean_anomaly": 105.5536,
        "meta_ephemeris_type": 0,
        "meta_classification_type": "U",
        "meta_norad_cat_id": 34796,
        "meta_element_set_no": 999,
        "meta_rev_at_epoch": 88041,
        "meta_bstar": 0.0007800698,
        "meta_mean_motion_dot": 3.104e-05,
        "meta_mean_motion_ddot": 0,
        "tle_line1": "1 34796U 93036AAZ 25347.67318014  .00003104  00000+0  78007-3 0  9993",
        "tle_line2": "2 34796  74.0294 214.5945 0100284 316.4175 105.5536 14.48696840880415"
      },
      "geometry": {
        "type": "Point",
        "coordinates": [
          -170.00064062595044,
          -53.85624645427714
        ]
      }
    },
    {
      "type": "Feature",
      "properties": {
        "norad_id": 34797,
        "name": "COSMOS 2251 DEB",
        "group": "cosmos-2251-debris",
        "lat": 27.971046406615674,
        "lon": 105.52668352231424,
        "alt_km": 798.9110267628575,
        "timestamp": "2025-12-14T11:29:50.455512+00:00",
        "meta_object_name": "COSMOS 2251 DEB",
        "meta_object_id": "1993-036ABA",
        "meta_epoch": "2025-12-08T02:15:30.483648",
        "meta_mean_motion": 14.42690241,
        "meta_eccentricity": 0.00721111,
        "meta_inclination": 73.9779,
        "meta_ra_of_asc_node": 108.638,
        "meta_arg_of_pericenter": 222.8023,
        "meta_mean_anomaly": 136.7506,
        "meta_ephemeris_type": 0,
        "meta_classification_type": "U",
        "meta_norad_cat_id": 34797,
        "meta_element_set_no": 999,
        "meta_rev_at_epoch": 87348,
        "meta_bstar": 0.0033221371,
        "meta_mean_motion_dot": 0.00011397,
        "meta_mean_motion_ddot": 0,
        "tle_line1": "1 34797U 93036ABA 25342.09410282  .00011397  00000+0  33221-2 0  9996",
        "tle_line2": "2 34797  73.9779 108.6380 0072111 222.8023 136.7506 14.42690241873482"
      },
      "geometry": {
        "type": "Point",
        "coordinates": [
          105.52668352231424,
          27.971046406615674
        ]
      }
    }
  ]
}